     2.100          NAVIGATION                              RINEX VERSION / TYPE
fic2rin                                 03/29/2015 00:21:03 PGM / RUN BY / DATE
                                                            END OF HEADER
14 15  3 28 22  0  0.0  .750175677240D-04 -.272848410532D-11  .000000000000D+00
     .230000000000D+02  .793750000000D+01  .459947730098D-08  .331237652189D+00
     .242143869400D-06  .790342281107D-02  .741332769394D-05  .515357229424D+04
     .597600000000D+06 -.596046447754D-07  .136177775885D+01  .428408384323D-07
     .966940604820D+00  .240750000000D+03 -.197539718626D+01 -.821141346690D-08
    -.241438628317D-09  .100000000000D+01  .183700000000D+04  .000000000000D+00
     .240000000000D+01  .000000000000D+00 -.931322574615D-08  .230000000000D+02
     .590406000000D+06  .400000000000D+01
17 15  3 28 22  0  0.0 -.163467600942D-03 -.193267624127D-11  .000000000000D+00
     .190000000000D+02 -.574687500000D+02  .444018495153D-08  .467600266457D+00
    -.292994081974D-05  .101059897570D-01  .572204589844D-05  .515373705482D+04
     .597600000000D+06 -.165775418282D-06 -.181184724452D+01  .409781932831D-07
     .971547567919D+00  .278468750000D+03 -.201537952442D+01 -.824784355579D-08
    -.237867050975D-09  .100000000000D+01  .183700000000D+04  .000000000000D+00
     .240000000000D+01  .000000000000D+00 -.107102096081D-07  .190000000000D+02
     .590406000000D+06  .400000000000D+01
18 15  3 28 22  0  0.0  .389756634831D-03  .284217094304D-11  .000000000000D+00
     .790000000000D+02  .196562500000D+02  .535986611708D-08  .196067016697D+01
     .901520252228D-06  .159540331224D-01  .741332769394D-05  .515376469231D+04
     .597600000000D+06 -.670552253723D-07  .220038984387D+00 -.407919287682D-06
     .925588508671D+00  .217031250000D+03 -.198071123618D+01 -.838320633705D-08
     .291440711104D-09  .100000000000D+01  .183700000000D+04  .000000000000D+00
     .240000000000D+01  .000000000000D+00 -.111758708954D-07  .790000000000D+02
     .590406000000D+06  .400000000000D+01
19 15  3 28 22  0  0.0 -.505510251969D-03 -.125055521494D-11  .000000000000D+00
     .960000000000D+02 -.711562500000D+02  .453161733148D-08 -.316303948906D+00
    -.373087823391D-05  .111405288335D-01  .584870576859D-05  .515370988464D+04
     .597600000000D+06  .104308128357D-06 -.176201762441D+01  .152736902237D-06
     .968608189528D+00  .268187500000D+03  .524575994147D+00 -.835391940285D-08
    -.270011247052D-09  .100000000000D+01  .183700000000D+04  .000000000000D+00
     .240000000000D+01  .000000000000D+00 -.149011611938D-07  .960000000000D+02
     .590406000000D+06  .400000000000D+01
20 15  3 28 22  0  0.0  .304514542222D-03  .397903932026D-11  .000000000000D+00
     .440000000000D+02  .236875000000D+02  .540665378026D-08  .111798978138D+01
     .120699405670D-05  .573665497359D-02  .737793743610D-05  .515577736473D+04
     .597600000000D+06 -.949949026108D-07  .167487745634D+00  .186264514923D-08
     .926771618798D+00  .219125000000D+03  .122356767215D+01 -.856071373095D-08
     .237509893240D-09  .100000000000D+01  .183700000000D+04  .000000000000D+00
     .240000000000D+01  .000000000000D+00 -.838190317154D-08  .440000000000D+02
     .590406000000D+06  .400000000000D+01
21 15  3 28 22  0  0.0 -.431037973613D-03 -.386535248253D-11  .000000000000D+00
     .880000000000D+02 -.383125000000D+02  .474091176372D-08  .301755230802D+01
    -.211782753468D-05  .224361888831D-01  .100191682577D-04  .515359849930D+04
     .597600000000D+06  .163912773132D-06 -.823317471072D+00 -.173225998878D-06
     .933638879567D+00  .166531250000D+03 -.192857378674D+01 -.778068123946D-08
     .914323799542D-10  .100000000000D+01  .183700000000D+04  .000000000000D+00
     .485000000000D+01  .000000000000D+00 -.116415321827D-07  .880000000000D+02
     .590406000000D+06  .400000000000D+01
22 15  3 28 22  0  0.0  .333581585437D-03  .397903932026D-11  .000000000000D+00
     .870000000000D+02  .240625000000D+02  .554273087699D-08  .150774710306D+01
     .124610960484D-05  .769066938665D-02  .742264091969D-05  .515369212914D+04
     .597600000000D+06 -.165775418282D-06  .221323145580D+00 -.670552253723D-07
     .923395110244D+00  .216781250000D+03 -.206128451860D+01 -.859785813530D-08
     .228938107620D-09  .100000000000D+01  .183700000000D+04  .000000000000D+00
     .340000000000D+01  .000000000000D+00 -.176951289177D-07  .870000000000D+02
     .590406000000D+06  .400000000000D+01
23 15  3 28 22  0  0.0 -.981953926384D-04 -.250111042988D-11  .000000000000D+00
     .140000000000D+02  .125000000000D+00  .501949479639D-08 -.743651818140D+00
     .117346644402D-06  .991539936513D-02  .661797821522D-05  .515363745689D+04
     .597600000000D+06  .212341547012D-06  .129090742834D+01  .502914190292D-07
     .948771614317D+00  .242062500000D+03 -.270484627593D+01 -.837534886690D-08
    -.168221292806D-09  .100000000000D+01  .183700000000D+04  .000000000000D+00
     .240000000000D+01  .000000000000D+00 -.200234353542D-07  .140000000000D+02
     .590406000000D+06  .400000000000D+01
24 15  3 28 22  0  0.0 -.457400456071D-04 -.568434188608D-12  .000000000000D+00
     .850000000000D+02  .350000000000D+02  .470519599030D-08 -.147357092584D+01
     .172108411789D-05  .318593089469D-02  .839680433273D-05  .515368104172D+04
     .597600000000D+06  .353902578354D-07  .231822349470D+01 -.372529029846D-07
     .953945402581D+00  .214468750000D+03  .336421386833D+00 -.811533803640D-08
    -.389301930274D-10  .100000000000D+01  .183700000000D+04  .000000000000D+00
     .240000000000D+01  .000000000000D+00  .232830643654D-08  .850000000000D+02
     .590406000000D+06  .400000000000D+01
25 15  3 28 22  0  0.0 -.148233957589D-04 -.329691829393D-11  .000000000000D+00
     .470000000000D+02  .317500000000D+02  .424660545959D-08  .282992474474D+01
     .156834721565D-05  .441944494378D-02  .549294054508D-05  .515370423126D+04
     .597600000000D+06 -.372529029846D-08 -.290370802456D+01 -.596046447754D-07
     .978252441855D+00  .281906250000D+03  .678398857533D+00 -.797033199632D-08
     .107147320259D-09  .100000000000D+01  .183700000000D+04  .000000000000D+00
     .240000000000D+01  .000000000000D+00  .512227416039D-08  .470000000000D+02
     .590406000000D+06  .400000000000D+01
27 15  3 28 22  0  0.0  .611022114754D-04  .261479726760D-11  .000000000000D+00
     .320000000000D+02 -.701250000000D+02  .457411910185D-08  .578164380376D+00
    -.359676778316D-05  .222991849296D-02  .526756048203D-05  .515368912506D+04
     .597600000000D+06  .391155481339D-07 -.185927043021D+01  .279396772385D-07
     .966437985667D+00  .275500000000D+03  .142858859994D+00 -.826534428477D-08
    -.251796202608D-09  .100000000000D+01  .183700000000D+04  .000000000000D+00
     .240000000000D+01  .000000000000D+00  .186264514923D-08  .320000000000D+02
     .590406000000D+06  .400000000000D+01
28 15  3 28 22  0  0.0  .429134350270D-03  .261479726760D-11  .000000000000D+00
     .170000000000D+02  .304687500000D+02  .415624455284D-08  .128577936797D+01
     .121816992760D-05  .195824672701D-01  .578351318836D-05  .515369089317D+04
     .597600000000D+06 -.314787030220D-06 -.283373935776D+01 -.331550836563D-06
     .988851856803D+00  .287562500000D+03 -.166546212143D+01 -.813033866124D-08
     .112147528538D-09  .100000000000D+01  .183700000000D+04  .000000000000D+00
     .240000000000D+01  .000000000000D+00 -.111758708954D-07  .170000000000D+02
     .590406000000D+06  .400000000000D+01
29 15  3 28 22  0  0.0  .600869767368D-03  .238742359215D-11  .000000000000D+00
     .990000000000D+02 -.563125000000D+02  .429839333105D-08 -.305150024808D+01
    -.304169952869D-05  .139284809120D-02  .630691647530D-05  .515378683662D+04
     .597600000000D+06 -.316649675369D-07 -.180253483029D+01  .316649675369D-07
     .972372428426D+00  .263562500000D+03 -.721778822928D+00 -.802354849872D-08
    -.198579700213D-09  .100000000000D+01  .183700000000D+04  .000000000000D+00
     .240000000000D+01  .000000000000D+00 -.977888703346D-08  .990000000000D+02
     .590406000000D+06  .400000000000D+01
30 15  3 28 22  0  0.0 -.764769501984D-04  .318323145621D-11  .000000000000D+00
     .300000000000D+02  .323437500000D+02  .465055085697D-08 -.210522898605D+01
     .170990824699D-05  .115717563313D-02  .915303826332D-05  .515375893402D+04
     .597600000000D+06 -.204890966415D-07  .240824051750D+01 -.260770320892D-07
     .956494165753D+00  .204718750000D+03  .285672498410D+01 -.806426448041D-08
    -.364300888880D-10  .100000000000D+01  .183700000000D+04  .000000000000D+00
     .240000000000D+01  .000000000000D+00  .325962901115D-08  .300000000000D+02
     .590406000000D+06  .400000000000D+01
31 15  3 28 22  0  0.0  .320016406476D-03 -.909494701773D-12  .000000000000D+00
     .590000000000D+02  .490312500000D+02  .414874424042D-08 -.241571255446D+01
     .260397791862D-05  .819500256330D-02  .944733619690D-05  .515376022911D+04
     .597600000000D+06 -.160187482834D-06  .236555954314D+01  .968575477600D-07
     .975644774287D+00  .207625000000D+03 -.526590664946D+00 -.777639534665D-08
    -.639312344211D-10  .100000000000D+01  .183700000000D+04  .000000000000D+00
     .240000000000D+01  .000000000000D+00 -.135041773319D-07  .590000000000D+02
     .590406000000D+06  .400000000000D+01
32 15  3 28 22  0  0.0 -.189870595932D-03  .943600753089D-11  .000000000000D+00
     .930000000000D+02  .236562500000D+02  .492306220816D-08 -.176151407045D+01
     .114925205708D-05  .112756103044D-01  .729784369469D-05  .515379563904D+04
     .597600000000D+06 -.577419996262D-07  .320725823609D+00 -.149011611938D-06
     .947450852377D+00  .232656250000D+03  .267907011288D-01 -.819355558019D-08
     .386444668400D-09  .100000000000D+01  .183700000000D+04  .000000000000D+00
     .240000000000D+01  .000000000000D+00 -.372529029846D-08  .930000000000D+02
     .590406000000D+06  .400000000000D+01
